[{"OBJECT_NAME":"STARLINK-31211","OBJECT_ID":"2024-038J","EPOCH":"2026-03-09T05:55:56.248320","MEAN_MOTION":15.27571669,"ECCENTRICITY":6.816e-5,"INCLINATION":42.9996,"RA_OF_ASC_NODE":29.2471,"ARG_OF_PERICENTER":253.7027,"MEAN_ANOMALY":106.375,"EPHEMERIS_TYPE":0,"CLASSIFICATION_TYPE":"U","NORAD_CAT_ID":59031,"ELEMENT_SET_NO":999,"REV_AT_EPOCH":11458,"BSTAR":-2.0817575e-5,"MEAN_MOTION_DOT":-8.34e-6,"MEAN_MOTION_DDOT":0},{"OBJECT_NAME":"PHISAT 2","OBJECT_ID":"2024-149C","EPOCH":"2026-03-09T18:55:12.732384","MEAN_MOTION":15.29548632,"ECCENTRICITY":0.00011753,"INCLINATION":97.3806,"RA_OF_ASC_NODE":148.6498,"ARG_OF_PERICENTER":168.623,"MEAN_ANOMALY":191.5037,"EPHEMERIS_TYPE":0,"CLASSIFICATION_TYPE":"U","NORAD_CAT_ID":60470,"ELEMENT_SET_NO":999,"REV_AT_EPOCH":8679,"BSTAR":0.00031420974,"MEAN_MOTION_DOT":8.925e-5,"MEAN_MOTION_DDOT":0}]
